{
  "type": "FeatureCollection",
  "features": [
    {
      "type": "Feature",
      "properties": {
        "norad_id": 55973,
        "name": "TIANMU-1 03",
        "group": "weather",
        "lat": -30.37398808593687,
        "lon": 165.6545197625956,
        "alt_km": 447.1047727354926,
        "timestamp": "2025-12-24T05:51:19.249087+00:00",
        "meta_object_name": "TIANMU-1 03",
        "meta_object_id": "2023-039A",
        "meta_epoch": "2025-12-23T23:45:19.010304",
        "meta_mean_motion": 15.41241629,
        "meta_eccentricity": 0.00038515,
        "meta_inclination": 97.5112,
        "meta_ra_of_asc_node": 160.958,
        "meta_arg_of_pericenter": 28.4452,
        "meta_mean_anomaly": 331.7003,
        "meta_ephemeris_type": 0,
        "meta_classification_type": "U",
        "meta_norad_cat_id": 55973,
        "meta_element_set_no": 999,
        "meta_rev_at_epoch": 15379,
        "meta_bstar": 0.00037923264,
        "meta_mean_motion_dot": 0.00015691,
        "meta_mean_motion_ddot": 0,
        "tle_line1": "1 55973U 23039A   25357.98980336  .00015691  00000+0  37923-3 0  9992",
        "tle_line2": "2 55973  97.5112 160.9580 0003851  28.4452 331.7003 15.41241629153794"
      },
      "geometry": {
        "type": "Point",
        "coordinates": [
          165.6545197625956,
          -30.37398808593687
        ]
      }
    },
    {
      "type": "Feature",
      "properties": {
        "norad_id": 55974,
        "name": "TIANMU-1 04",
        "group": "weather",
        "lat": 79.35192909856377,
        "lon": 24.925138076069125,
        "alt_km": 433.3682303992109,
        "timestamp": "2025-12-24T05:51:19.249101+00:00",
        "meta_object_name": "TIANMU-1 04",
        "meta_object_id": "2023-039B",
        "meta_epoch": "2025-12-23T23:12:09.484416",
        "meta_mean_motion": 15.4158413,
        "meta_eccentricity": 0.00044627,
        "meta_inclination": 97.5045,
        "meta_ra_of_asc_node": 160.1207,
        "meta_arg_of_pericenter": 21.6385,
        "meta_mean_anomaly": 338.5049,
        "meta_ephemeris_type": 0,
        "meta_classification_type": "U",
        "meta_norad_cat_id": 55974,
        "meta_element_set_no": 999,
        "meta_rev_at_epoch": 15379,
        "meta_bstar": 0.0003821044,
        "meta_mean_motion_dot": 0.00015993,
        "meta_mean_motion_ddot": 0,
        "tle_line1": "1 55974U 23039B   25357.96677644  .00015993  00000+0  38210-3 0  9991",
        "tle_line2": "2 55974  97.5045 160.1207 0004462  21.6385 338.5049 15.41584130153799"
      },
      "geometry": {
        "type": "Point",
        "coordinates": [
          24.925138076069125,
          79.35192909856377
        ]
      }
    },
    {
      "type": "Feature",
      "properties": {
        "norad_id": 55975,
        "name": "TIANMU-1 05",
        "group": "weather",
        "lat": 65.2329478100725,
        "lon": -2.4885088183815958,
        "alt_km": 435.16417835200537,
        "timestamp": "2025-12-24T05:51:19.249111+00:00",
        "meta_object_name": "TIANMU-1 05",
        "meta_object_id": "2023-039C",
        "meta_epoch": "2025-12-23T23:07:53.230656",
        "meta_mean_motion": 15.41197661,
        "meta_eccentricity": 0.00040003,
        "meta_inclination": 97.5091,
        "meta_ra_of_asc_node": 160.6105,
        "meta_arg_of_pericenter": 47.2243,
        "meta_mean_anomaly": 312.9339,
        "meta_ephemeris_type": 0,
        "meta_classification_type": "U",
        "meta_norad_cat_id": 55975,
        "meta_element_set_no": 999,
        "meta_rev_at_epoch": 15377,
        "meta_bstar": 0.00037851072,
        "meta_mean_motion_dot": 0.00015638,
        "meta_mean_motion_ddot": 0,
        "tle_line1": "1 55975U 23039C   25357.96381054  .00015638  00000+0  37851-3 0  9995",
        "tle_line2": "2 55975  97.5091 160.6105 0004000  47.2243 312.9339 15.41197661153773"
      },
      "geometry": {
        "type": "Point",
        "coordinates": [
          -2.4885088183815958,
          65.2329478100725
        ]
      }
    },
    {
      "type": "Feature",
      "properties": {
        "norad_id": 55976,
        "name": "TIANMU-1 06",
        "group": "weather",
        "lat": 82.1195987735223,
        "lon": 88.98187559974679,
        "alt_km": 431.83702519363214,
        "timestamp": "2025-12-24T05:51:19.249121+00:00",
        "meta_object_name": "TIANMU-1 06",
        "meta_object_id": "2023-039D",
        "meta_epoch": "2025-12-23T23:14:44.935296",
        "meta_mean_motion": 15.41635381,
        "meta_eccentricity": 0.00042468,
        "meta_inclination": 97.5102,
        "meta_ra_of_asc_node": 161.0897,
        "meta_arg_of_pericenter": 41.2443,
        "meta_mean_anomaly": 318.9124,
        "meta_ephemeris_type": 0,
        "meta_classification_type": "U",
        "meta_norad_cat_id": 55976,
        "meta_element_set_no": 999,
        "meta_rev_at_epoch": 15379,
        "meta_bstar": 0.00038104543,
        "meta_mean_motion_dot": 0.00015976,
        "meta_mean_motion_ddot": 0,
        "tle_line1": "1 55976U 23039D   25357.96857564  .00015976  00000+0  38105-3 0  9998",
        "tle_line2": "2 55976  97.5102 161.0897 0004246  41.2443 318.9124 15.41635381153794"
      },
      "geometry": {
        "type": "Point",
        "coordinates": [
          88.98187559974679,
          82.1195987735223
        ]
      }
    },
    {
      "type": "Feature",
      "properties": {
        "norad_id": 56232,
        "name": "FENGYUN 3G",
        "group": "weather",
        "lat": 38.798218356752145,
        "lon": -149.46707660542125,
        "alt_km": 403.86777210465425,
        "timestamp": "2025-12-24T05:51:19.249133+00:00",
        "meta_object_name": "FENGYUN 3G",
        "meta_object_id": "2023-055A",
        "meta_epoch": "2025-12-23T23:26:53.187072",
        "meta_mean_motion": 15.5429502,
        "meta_eccentricity": 0.0009189,
        "meta_inclination": 49.9923,
        "meta_ra_of_asc_node": 169.4369,
        "meta_arg_of_pericenter": 199.0042,
        "meta_mean_anomaly": 161.0585,
        "meta_ephemeris_type": 0,
        "meta_classification_type": "U",
        "meta_norad_cat_id": 56232,
        "meta_element_set_no": 999,
        "meta_rev_at_epoch": 15277,
        "meta_bstar": 0.00049464098,
        "meta_mean_motion_dot": 0.00032703,
        "meta_mean_motion_ddot": 0,
        "tle_line1": "1 56232U 23055A   25357.97700448  .00032703  00000+0  49464-3 0  9998",
        "tle_line2": "2 56232  49.9923 169.4369 0009189 199.0042 161.0585 15.54295020152777"
      },
      "geometry": {
        "type": "Point",
        "coordinates": [
          -149.46707660542125,
          38.798218356752145
        ]
      }
    },
    {
      "type": "Feature",
      "properties": {
        "norad_id": 57166,
        "name": "METEOR-M2 3",
        "group": "weather",
        "lat": 29.285393840820532,
        "lon": -123.5288209993279,
        "alt_km": 812.667128136989,
        "timestamp": "2025-12-24T05:51:19.249144+00:00",
        "meta_object_name": "METEOR-M2 3",
        "meta_object_id": "2023-091A",
        "meta_epoch": "2025-12-24T00:05:35.117952",
        "meta_mean_motion": 14.24027384,
        "meta_eccentricity": 0.00033027,
        "meta_inclination": 98.6363,
        "meta_ra_of_asc_node": 51.3457,
        "meta_arg_of_pericenter": 333.9835,
        "meta_mean_anomaly": 26.1177,
        "meta_ephemeris_type": 0,
        "meta_classification_type": "U",
        "meta_norad_cat_id": 57166,
        "meta_element_set_no": 999,
        "meta_rev_at_epoch": 12958,
        "meta_bstar": 2.3349704e-05,
        "meta_mean_motion_dot": 1e-07,
        "meta_mean_motion_ddot": 0,
        "tle_line1": "1 57166U 23091A   25358.00387868  .00000010  00000+0  23350-4 0  9990",
        "tle_line2": "2 57166  98.6363  51.3457 0003302 333.9835  26.1177 14.24027384129583"
      },
      "geometry": {
        "type": "Point",
        "coordinates": [
          -123.5288209993279,
          29.285393840820532
        ]
      }
    },
    {
      "type": "Feature",
      "properties": {
        "norad_id": 57399,
        "name": "TIANMU-1 07",
        "group": "weather",
        "lat": -37.57179582542933,
        "lon": 53.48835635438408,
        "alt_km": 487.5596360841955,
        "timestamp": "2025-12-24T05:51:19.249154+00:00",
        "meta_object_name": "TIANMU-1 07",
        "meta_object_id": "2023-101A",
        "meta_epoch": "2025-12-23T23:44:06.417024",
        "meta_mean_motion": 15.28225506,
        "meta_eccentricity": 0.00050853,
        "meta_inclination": 97.2856,
        "meta_ra_of_asc_node": 47.5905,
        "meta_arg_of_pericenter": 52.7429,
        "meta_mean_anomaly": 307.4274,
        "meta_ephemeris_type": 0,
        "meta_classification_type": "U",
        "meta_norad_cat_id": 57399,
        "meta_element_set_no": 999,
        "meta_rev_at_epoch": 13487,
        "meta_bstar": 0.00026935043,
        "meta_mean_motion_dot": 7.338e-05,
        "meta_mean_motion_ddot": 0,
        "tle_line1": "1 57399U 23101A   25357.98896316  .00007338  00000+0  26935-3 0  9990",
        "tle_line2": "2 57399  97.2856  47.5905 0005085  52.7429 307.4274 15.28225506134875"
      },
      "geometry": {
        "type": "Point",
        "coordinates": [
          53.48835635438408,
          -37.57179582542933
        ]
      }
    }
  ]
}